{
  "type": "FeatureCollection",
  "features": [
    {
      "type": "Feature",
      "properties": {
        "norad_id": 66577,
        "name": "STARLINK-35815",
        "group": "last-30-days",
        "lat": 40.64994649806342,
        "lon": -176.59473160600314,
        "alt_km": 409.5919307729091,
        "timestamp": "2025-12-13T13:34:33.864279+00:00",
        "meta_object_name": "STARLINK-35815",
        "meta_object_id": "2025-268W",
        "meta_epoch": "2025-12-12T20:00:01.999872",
        "meta_mean_motion": 15.50599502,
        "meta_eccentricity": 0.00015277,
        "meta_inclination": 43.0003,
        "meta_ra_of_asc_node": 120.5575,
        "meta_arg_of_pericenter": 285.8694,
        "meta_mean_anomaly": 14.3273,
        "meta_ephemeris_type": 0,
        "meta_classification_type": "U",
        "meta_norad_cat_id": 66577,
        "meta_element_set_no": 999,
        "meta_rev_at_epoch": 468,
        "meta_bstar": -0.0010556277,
        "meta_mean_motion_dot": -0.00061829,
        "meta_mean_motion_ddot": 0,
        "tle_line1": "1 66577U 25268W   25346.83335648 -.00061829  00000+0 -10556-2 0  9990",
        "tle_line2": "2 66577  43.0003 120.5575 0001527 285.8694  14.3273 15.50599502  4684"
      },
      "geometry": {
        "type": "Point",
        "coordinates": [
          -176.59473160600314,
          40.64994649806342
        ]
      }
    },
    {
      "type": "Feature",
      "properties": {
        "norad_id": 66578,
        "name": "STARLINK-35743",
        "group": "last-30-days",
        "lat": 41.12896971764875,
        "lon": -174.16150799358778,
        "alt_km": 409.57176445704135,
        "timestamp": "2025-12-13T13:34:33.864289+00:00",
        "meta_object_name": "STARLINK-35743",
        "meta_object_id": "2025-268X",
        "meta_epoch": "2025-12-12T20:00:01.999872",
        "meta_mean_motion": 15.50617168,
        "meta_eccentricity": 0.00012583,
        "meta_inclination": 43.0003,
        "meta_ra_of_asc_node": 120.5523,
        "meta_arg_of_pericenter": 268.9167,
        "meta_mean_anomaly": 33.1913,
        "meta_ephemeris_type": 0,
        "meta_classification_type": "U",
        "meta_norad_cat_id": 66578,
        "meta_element_set_no": 999,
        "meta_rev_at_epoch": 468,
        "meta_bstar": -0.001495689,
        "meta_mean_motion_dot": -0.00087232,
        "meta_mean_motion_ddot": 0,
        "tle_line1": "1 66578U 25268X   25346.83335648 -.00087232  00000+0 -14957-2 0  9996",
        "tle_line2": "2 66578  43.0003 120.5523 0001258 268.9167  33.1913 15.50617168  4685"
      },
      "geometry": {
        "type": "Point",
        "coordinates": [
          -174.16150799358778,
          41.12896971764875
        ]
      }
    },
    {
      "type": "Feature",
      "properties": {
        "norad_id": 66579,
        "name": "STARLINK-35868",
        "group": "last-30-days",
        "lat": 41.55758231939945,
        "lon": -171.68303051639035,
        "alt_km": 409.6699494685836,
        "timestamp": "2025-12-13T13:34:33.864298+00:00",
        "meta_object_name": "STARLINK-35868",
        "meta_object_id": "2025-268Y",
        "meta_epoch": "2025-12-12T20:00:01.999872",
        "meta_mean_motion": 15.50625583,
        "meta_eccentricity": 0.00014128,
        "meta_inclination": 43.0003,
        "meta_ra_of_asc_node": 120.5477,
        "meta_arg_of_pericenter": 263.18,
        "meta_mean_anomaly": 40.8418,
        "meta_ephemeris_type": 0,
        "meta_classification_type": "U",
        "meta_norad_cat_id": 66579,
        "meta_element_set_no": 999,
        "meta_rev_at_epoch": 468,
        "meta_bstar": -0.0017099892,
        "meta_mean_motion_dot": -0.00099558,
        "meta_mean_motion_ddot": 0,
        "tle_line1": "1 66579U 25268Y   25346.83335648 -.00099558  00000+0 -17100-2 0  9994",
        "tle_line2": "2 66579  43.0003 120.5477 0001412 263.1800  40.8418 15.50625583  4682"
      },
      "geometry": {
        "type": "Point",
        "coordinates": [
          -171.68303051639035,
          41.55758231939945
        ]
      }
    },
    {
      "type": "Feature",
      "properties": {
        "norad_id": 66580,
        "name": "STARLINK-35872",
        "group": "last-30-days",
        "lat": 41.93423893620346,
        "lon": -169.15738514183667,
        "alt_km": 409.48116507261057,
        "timestamp": "2025-12-13T13:34:33.864307+00:00",
        "meta_object_name": "STARLINK-35872",
        "meta_object_id": "2025-268Z",
        "meta_epoch": "2025-12-12T20:00:01.999872",
        "meta_mean_motion": 15.5061357,
        "meta_eccentricity": 0.00012846,
        "meta_inclination": 43.0003,
        "meta_ra_of_asc_node": 120.5436,
        "meta_arg_of_pericenter": 268.9261,
        "meta_mean_anomaly": 37.0194,
        "meta_ephemeris_type": 0,
        "meta_classification_type": "U",
        "meta_norad_cat_id": 66580,
        "meta_element_set_no": 999,
        "meta_rev_at_epoch": 468,
        "meta_bstar": -0.0014517363,
        "meta_mean_motion_dot": -0.00084695,
        "meta_mean_motion_ddot": 0,
        "tle_line1": "1 66580U 25268Z   25346.83335648 -.00084695  00000+0 -14517-2 0  9991",
        "tle_line2": "2 66580  43.0003 120.5436 0001284 268.9261  37.0194 15.50613570  4682"
      },
      "geometry": {
        "type": "Point",
        "coordinates": [
          -169.15738514183667,
          41.93423893620346
        ]
      }
    },
    {
      "type": "Feature",
      "properties": {
        "norad_id": 66581,
        "name": "STARLINK-35744",
        "group": "last-30-days",
        "lat": 42.254007633693114,
        "lon": -166.6110468247866,
        "alt_km": 409.49343567942014,
        "timestamp": "2025-12-13T13:34:33.864315+00:00",
        "meta_object_name": "STARLINK-35744",
        "meta_object_id": "2025-268AA",
        "meta_epoch": "2025-12-12T20:00:01.999872",
        "meta_mean_motion": 15.50618793,
        "meta_eccentricity": 0.00014847,
        "meta_inclination": 43.0002,
        "meta_ra_of_asc_node": 120.538,
        "meta_arg_of_pericenter": 284.0054,
        "meta_mean_anomaly": 23.8544,
        "meta_ephemeris_type": 0,
        "meta_classification_type": "U",
        "meta_norad_cat_id": 66581,
        "meta_element_set_no": 999,
        "meta_rev_at_epoch": 463,
        "meta_bstar": -0.0015813482,
        "meta_mean_motion_dot": -0.00092158,
        "meta_mean_motion_ddot": 0,
        "tle_line1": "1 66581U 25268AA  25346.83335648 -.00092158  00000+0 -15813-2 0  9995",
        "tle_line2": "2 66581  43.0002 120.5380 0001484 284.0054  23.8544 15.50618793  4630"
      },
      "geometry": {
        "type": "Point",
        "coordinates": [
          -166.6110468247866,
          42.254007633693114
        ]
      }
    },
    {
      "type": "Feature",
      "properties": {
        "norad_id": 66582,
        "name": "STARLINK-35746",
        "group": "last-30-days",
        "lat": 42.51419236295749,
        "lon": -164.0694242044361,
        "alt_km": 409.5834497455189,
        "timestamp": "2025-12-13T13:34:33.864324+00:00",
        "meta_object_name": "STARLINK-35746",
        "meta_object_id": "2025-268AB",
        "meta_epoch": "2025-12-12T20:00:01.999872",
        "meta_mean_motion": 15.50648956,
        "meta_eccentricity": 0.00014314,
        "meta_inclination": 43.0003,
        "meta_ra_of_asc_node": 120.5335,
        "meta_arg_of_pericenter": 276.4618,
        "meta_mean_anomaly": 33.2977,
        "meta_ephemeris_type": 0,
        "meta_classification_type": "U",
        "meta_norad_cat_id": 66582,
        "meta_element_set_no": 999,
        "meta_rev_at_epoch": 468,
        "meta_bstar": -0.0022924732,
        "meta_mean_motion_dot": -0.00132903,
        "meta_mean_motion_ddot": 0,
        "tle_line1": "1 66582U 25268AB  25346.83335648 -.00132903  00000+0 -22925-2 0  9991",
        "tle_line2": "2 66582  43.0003 120.5335 0001431 276.4618  33.2977 15.50648956  4689"
      },
      "geometry": {
        "type": "Point",
        "coordinates": [
          -164.0694242044361,
          42.51419236295749
        ]
      }
    },
    {
      "type": "Feature",
      "properties": {
        "norad_id": 66583,
        "name": "STARLINK-35941",
        "group": "last-30-days",
        "lat": 42.72264991866043,
        "lon": -161.43177751023117,
        "alt_km": 409.31957098422754,
        "timestamp": "2025-12-13T13:34:33.864333+00:00",
        "meta_object_name": "STARLINK-35941",
        "meta_object_id": "2025-268AC",
        "meta_epoch": "2025-12-12T20:00:01.999872",
        "meta_mean_motion": 15.50604528,
        "meta_eccentricity": 0.00014001,
        "meta_inclination": 43.0002,
        "meta_ra_of_asc_node": 120.5281,
        "meta_arg_of_pericenter": 284.6426,
        "meta_mean_anomaly": 27.0533,
        "meta_ephemeris_type": 0,
        "meta_classification_type": "U",
        "meta_norad_cat_id": 66583,
        "meta_element_set_no": 999,
        "meta_rev_at_epoch": 468,
        "meta_bstar": -0.0011213886,
        "meta_mean_motion_dot": -0.00065638,
        "meta_mean_motion_ddot": 0,
        "tle_line1": "1 66583U 25268AC  25346.83335648 -.00065638  00000+0 -11214-2 0  9991",
        "tle_line2": "2 66583  43.0002 120.5281 0001400 284.6426  27.0533 15.50604528  4689"
      },
      "geometry": {
        "type": "Point",
        "coordinates": [
          -161.43177751023117,
          42.72264991866043
        ]
      }
    }
  ]
}